IRIDIUM 150             
1 43257U 18030J   25105.53689068  .00000096  00000+0  27178-4 0  9994
2 43257  86.3918 109.2675 0002164  96.9494 263.1948 14.34218145368881
IRIDIUM 143             
1 43258U 18030K   25105.51786327 -.00000002  00000+0 -76525-5 0  9999
2 43258  86.3921 109.3514 0002150 102.3336 257.8101 14.34217646368821
IRIDIUM 161             
1 43478U 18047C   25104.91242600  .00000343  00000+0  95940-4 0  9992
2 43478  86.4438 267.3941 0002264  91.9917 268.1543 14.43282372363369
IRIDIUM 152             
1 43479U 18047D   25104.93243200  .00000579  00000+0  19981-3 0  9993
2 43479  86.3914 267.2459 0002094  91.0034 269.1402 14.34217995361107
IRIDIUM 147             
1 43480U 18047E   25104.86900830 -.00000025  00000+0 -16073-4 0  9994
2 43480  86.3917 267.2704 0002245  90.6082 269.5371 14.34217256361098
IRIDIUM 110             
1 43481U 18047F   25105.50326487  .00000057  00000+0  13370-4 0  9997
2 43481  86.3918 267.0853 0002251  80.6323 279.5127 14.34217940361176
IRIDIUM 162             
1 43482U 18047G   25105.53007037  .00000304  00000+0  84231-4 0  9997
2 43482  86.4438 267.0316 0002369  83.4557 276.6914 14.43286124363443
IRIDIUM 160             
1 43569U 18061A   25104.89095117  .00000026  00000+0  20972-5 0  9997
2 43569  86.3978 235.7058 0002267  89.8499 270.2957 14.34215631351982
